APRIZESAT 2             
1 28366U 04025A   26194.23816086  .00000110  00000+0  47017-4 0  9996
2 28366  98.1038 358.7468 0105806 170.7622 189.5546 14.38047098155386
SAUDICOMSAT 1           
1 28369U 04025D   26194.00209918  .00000164  00000+0  48828-4 0  9994
2 28369  98.5776 204.8308 0031079 305.8417  53.9894 14.55492672167888
SAUDICOMSAT 2           
1 28370U 04025E   26194.27855452  .00000102  00000+0  38353-4 0  9999
2 28370  98.6642 207.2625 0055504 179.4847 180.6413 14.49993812163889
APRIZESAT 1             
1 28372U 04025G   26194.27791375  .00000132  00000+0  44427-4 0  9996
2 28372  98.6309 205.7138 0045801  76.3394 284.2895 14.51791387165696
NANOSAT-1               
1 28493U 04049B   26194.19507526  .00000516  00000+0  75141-4 0  9993
2 28493  98.2306 331.4971 0003647 190.5899 169.5236 14.80208662159290
SAUDICOMSAT 7           
1 31119U 07012C   26193.91052056  .00000260  00000+0  55613-4 0  9995
2 31119  98.3796 168.5710 0056892 115.2932 245.4180 14.66135309 26202
SAUDICOMSAT 6           
1 31121U 07012E   26193.88197955  .00000185  00000+0  45549-4 0  9995
2 31121  98.4115 161.8794 0070449 246.4382 112.9408 14.62583472 23942
SAUDICOMSAT 5           
1 31124U 07012H   26194.18867968  .00000340  00000+0  67172-4 0  9999
2 31124  98.3509 169.5966 0048355  45.0285 315.4824 14.68190655 27414
SAUDICOMSAT 3           
1 31125U 07012J   26194.17208870  .00000404  00000+0  74361-4 0  9999
2 31125  98.3162 170.1263 0038385 331.7468  28.1655 14.70747955 28648
SAUDICOMSAT 4           
1 31127U 07012L   26194.18549514  .00000205  00000+0  47438-4 0  9999
2 31127  98.4002 167.2888 0063421 175.9975 184.1748 14.64534388 25093
APRIZESAT 4             
1 35684U 09041D   26193.74598681  .00000345  00000+0  48023-4 0  9991
2 35684  98.1404 269.5752 0042095 237.6607 122.0528 14.83911924915154
S-NET D                 
1 43186U 18014G   26193.72856075  .00002692  00000+0  14005-3 0  9998
2 43186  97.5340  98.3608 0006389 295.6032  64.4541 15.16904418462633
S-NET B                 
1 43187U 18014H   26194.13631689  .00002849  00000+0  14811-3 0  9996
2 43187  97.5344  98.7534 0006929 287.5249  72.5227 15.16876626462696
S-NET A                 
1 43188U 18014J   26194.18905322  .00002636  00000+0  13714-3 0  9995
2 43188  97.5355  99.0197 0006835 288.4981  71.5509 15.16915568462700
S-NET C                 
1 43189U 18014K   26194.20629830  .00002878  00000+0  14959-3 0  9996
2 43189  97.5373  99.1155 0008146 278.8118  81.2193 15.16868362461253
SALSAT                  
1 46495U 20068K   26193.91391395  .00004828  00000+0  16824-3 0  9990
2 46495  97.8853 198.5521 0008922 201.3461 158.7407 15.30153171319292
OOV-CUBE (TUBSAT-30)    
1 60240U 24128F   26194.27100790  .00001084  00000+0  94851-4 0  9990
2 60240  61.9937 134.6127 0041377 139.5955 220.8222 15.02869223110033
LPNTSAT-001 (IOD-1)     
1 68408U 26065A   26193.97232545  .00001457  00000+0  73423-4 0  9992
2 68408  97.3989  73.9344 0014606 275.0724  84.8843 15.18662692 16173
CHUANG XIN 26 (CX-26)   
1 69972U 26158A   26194.30405707 -.00000270  00000+0 -46547-4 0  9993
2 69972  49.9860 288.3997 0004884 293.5714  66.4686 14.25122245   433
